[{"OBJECT_NAME":"STARLINK-1835","OBJECT_ID":"2020-074AV","EPOCH":"2026-03-10T00:00:02.999808","MEAN_MOTION":15.58512564,"ECCENTRICITY":0.00054997,"INCLINATION":53.0462,"RA_OF_ASC_NODE":273.318,"ARG_OF_PERICENTER":13.506,"MEAN_ANOMALY":307.0156,"EPHEMERIS_TYPE":0,"CLASSIFICATION_TYPE":"U","NORAD_CAT_ID":46782,"ELEMENT_SET_NO":999,"REV_AT_EPOCH":583,"BSTAR":0.0023118228,"MEAN_MOTION_DOT":0.00183599,"MEAN_MOTION_DDOT":0},{"OBJECT_NAME":"DONGPO 05","OBJECT_ID":"2022-098F","EPOCH":"2026-03-09T22:38:51.974304","MEAN_MOTION":15.61813962,"ECCENTRICITY":9.343e-5,"INCLINATION":97.5362,"RA_OF_ASC_NODE":193.3914,"ARG_OF_PERICENTER":313.3039,"MEAN_ANOMALY":46.8141,"EPHEMERIS_TYPE":0,"CLASSIFICATION_TYPE":"U","NORAD_CAT_ID":53449,"ELEMENT_SET_NO":999,"REV_AT_EPOCH":19929,"BSTAR":0.00094963303,"MEAN_MOTION_DOT":0.00082798,"MEAN_MOTION_DDOT":0}]
